start=new Date('2021-12-23T00:00:00.000Z').valueOf();
sats=[{"MEAN_MOTION_DDOT":"0.0000000000000","TLE_LINE1":"1 49423U 21104R   21356.83334491 -.00656140  00000-0 -89485-2 0  9992","GP_ID":"192225126","BSTAR":"-0.00894850000000","REF_FRAME":"TEME","PERIAPSIS":"389.491","EPHEMERIS_TYPE":"0","ARG_OF_PERICENTER":"70.2183","RCS_SIZE":"LARGE","OBJECT_ID":"2021-104R","ELEMENT_SET_NO":"999","CLASSIFICATION_TYPE":"U","COUNTRY_CODE":"US","MEAN_ANOMALY":"194.4234","MEAN_MOTION":"15.59070875","PERIOD":"92.363","NORAD_CAT_ID":"49423","RA_OF_ASC_NODE":"299.0832","FILE":"3247684","OBJECT_NAME":"STARLINK-3149","SEMIMAJOR_AXIS":"6768.482","REV_AT_EPOCH":"745","OBJECT_TYPE":"PAYLOAD","ECCENTRICITY":"0.00012650","APOAPSIS":"391.203","TLE_LINE2":"2 49423  53.2175 299.0832 0001265  70.2183 194.4234 15.59070875  7455","MEAN_MOTION_DOT":"-0.00656140","MEAN_ELEMENT_THEORY":"SGP4","SITE":"AFETR","EPOCH":"2021-12-22T20:00:01.000224","DECAY_DATE":null,"CENTER_NAME":"EARTH","TIME_SYSTEM":"UTC","LAUNCH_DATE":"2021-11-13","INCLINATION":"53.2175"},{"APOAPSIS":"392.203","TLE_LINE2":"2 49424  53.2175 299.0872 0001266  72.1300 176.9872 15.58725718  7458","MEAN_MOTION_DOT":"-0.00656457","REV_AT_EPOCH":"745","OBJECT_TYPE":"PAYLOAD","ECCENTRICITY":"0.00012660","SEMIMAJOR_AXIS":"6769.481","OBJECT_NAME":"STARLINK-3135","INCLINATION":"53.2175","CENTER_NAME":"EARTH","TIME_SYSTEM":"UTC","LAUNCH_DATE":"2021-11-13","SITE":"AFETR","EPOCH":"2021-12-22T20:00:01.000224","DECAY_DATE":null,"MEAN_ELEMENT_THEORY":"SGP4","ELEMENT_SET_NO":"999","OBJECT_ID":"2021-104S","PERIAPSIS":"390.489","ARG_OF_PERICENTER":"72.1300","EPHEMERIS_TYPE":"0","RCS_SIZE":"LARGE","REF_FRAME":"TEME","MEAN_MOTION_DDOT":"0.0000000000000","TLE_LINE1":"1 49424U 21104S   21356.83334491 -.00656457  00000-0 -90718-2 0  9995","GP_ID":"192225133","BSTAR":"-0.00907180000000","RA_OF_ASC_NODE":"299.0872","FILE":"3247684","MEAN_MOTION":"15.58725718","PERIOD":"92.383","NORAD_CAT_ID":"49424","MEAN_ANOMALY":"176.9872","CLASSIFICATION_TYPE":"U","COUNTRY_CODE":"US"},{"INCLINATION":"53.2176","LAUNCH_DATE":"2021-11-13","TIME_SYSTEM":"UTC","CENTER_NAME":"EARTH","EPOCH":"2021-12-22T20:00:01.000224","DECAY_DATE":null,"SITE":"AFETR","MEAN_ELEMENT_THEORY":"SGP4","MEAN_MOTION_DOT":"-0.00655909","APOAPSIS":"390.863","TLE_LINE2":"2 49425  53.2176 299.0817 0001255  70.4421 199.3063 15.59185864  7456","ECCENTRICITY":"0.00012550","OBJECT_TYPE":"PAYLOAD","REV_AT_EPOCH":"745","SEMIMAJOR_AXIS":"6768.149","OBJECT_NAME":"STARLINK-3139","FILE":"3247684","RA_OF_ASC_NODE":"299.0817","NORAD_CAT_ID":"49425","PERIOD":"92.356","MEAN_MOTION":"15.59185864","MEAN_ANOMALY":"199.3063","COUNTRY_CODE":"US","CLASSIFICATION_TYPE":"U","OBJECT_ID":"2021-104T","ELEMENT_SET_NO":"999","RCS_SIZE":"LARGE","PERIAPSIS":"389.165","ARG_OF_PERICENTER":"70.4421","EPHEMERIS_TYPE":"0","REF_FRAME":"TEME","GP_ID":"192224798","BSTAR":"-0.00890590000000","MEAN_MOTION_DDOT":"0.0000000000000","TLE_LINE1":"1 49425U 21104T   21356.83334491 -.00655909  00000-0 -89059-2 0  9993"},{"REF_FRAME":"TEME","TLE_LINE1":"1 49426U 21104U   21356.83334491 -.00656202  00000-0 -89888-2 0  9991","MEAN_MOTION_DDOT":"0.0000000000000","BSTAR":"-0.00898880000000","GP_ID":"192223201","ELEMENT_SET_NO":"999","OBJECT_ID":"2021-104U","ARG_OF_PERICENTER":"69.4159","EPHEMERIS_TYPE":"0","PERIAPSIS":"389.823","RCS_SIZE":"LARGE","MEAN_ANOMALY":"190.0851","CLASSIFICATION_TYPE":"U","COUNTRY_CODE":"US","RA_OF_ASC_NODE":"299.0844","FILE":"3247602","MEAN_MOTION":"15.58955799","NORAD_CAT_ID":"49426","PERIOD":"92.370","SEMIMAJOR_AXIS":"6768.815","OBJECT_NAME":"STARLINK-3114","TLE_LINE2":"2 49426  53.2175 299.0844 0001266  69.4159 190.0851 15.58955799  7458","APOAPSIS":"391.537","MEAN_MOTION_DOT":"-0.00656202","REV_AT_EPOCH":"745","ECCENTRICITY":"0.00012660","OBJECT_TYPE":"PAYLOAD","SITE":"AFETR","DECAY_DATE":null,"EPOCH":"2021-12-22T20:00:01.000224","MEAN_ELEMENT_THEORY":"SGP4","INCLINATION":"53.2175","CENTER_NAME":"EARTH","TIME_SYSTEM":"UTC","LAUNCH_DATE":"2021-11-13"},{"INCLINATION":"53.2176","CENTER_NAME":"EARTH","LAUNCH_DATE":"2021-11-13","TIME_SYSTEM":"UTC","SITE":"AFETR","EPOCH":"2021-12-22T20:00:01.000224","DECAY_DATE":null,"MEAN_ELEMENT_THEORY":"SGP4","APOAPSIS":"390.510","TLE_LINE2":"2 49427  53.2176 299.0801 0001224  73.7339 201.0872 15.59300884  7473","MEAN_MOTION_DOT":"-0.00655745","REV_AT_EPOCH":"747","OBJECT_TYPE":"PAYLOAD","ECCENTRICITY":"0.00012240","SEMIMAJOR_AXIS":"6767.816","OBJECT_NAME":"STARLINK-3131","RA_OF_ASC_NODE":"299.0801","FILE":"3247702","MEAN_MOTION":"15.59300884","PERIOD":"92.349","NORAD_CAT_ID":"49427","MEAN_ANOMALY":"201.0872","CLASSIFICATION_TYPE":"U","COUNTRY_CODE":"US","OBJECT_ID":"2021-104V","ELEMENT_SET_NO":"999","PERIAPSIS":"388.853","ARG_OF_PERICENTER":"73.7339","EPHEMERIS_TYPE":"0","RCS_SIZE":"LARGE","REF_FRAME":"TEME","MEAN_MOTION_DDOT":"0.0000000000000","TLE_LINE1":"1 49427U 21104V   21356.83334491 -.00655745  00000-0 -88645-2 0  9993","GP_ID":"192225696","BSTAR":"-0.00886450000000"},{"REF_FRAME":"TEME","TLE_LINE1":"1 49428U 21104W   21356.83334491 -.00655501  00000-0 -87570-2 0  9990","MEAN_MOTION_DDOT":"0.0000000000000","BSTAR":"-0.00875700000000","GP_ID":"192225233","OBJECT_ID":"2021-104W","ELEMENT_SET_NO":"999","ARG_OF_PERICENTER":"73.1425","EPHEMERIS_TYPE":"0","PERIAPSIS":"387.972","RCS_SIZE":"LARGE","MEAN_ANOMALY":"216.3341","CLASSIFICATION_TYPE":"U","COUNTRY_CODE":"US","RA_OF_ASC_NODE":"299.0731","FILE":"3247703","MEAN_MOTION":"15.59609044","NORAD_CAT_ID":"49428","PERIOD":"92.331","SEMIMAJOR_AXIS":"6766.925","OBJECT_NAME":"STARLINK-3121","TLE_LINE2":"2 49428  53.2177 299.0731 0001208  73.1425 216.3341 15.59609044  7457","APOAPSIS":"389.607","MEAN_MOTION_DOT":"-0.00655501","REV_AT_EPOCH":"745","OBJECT_TYPE":"PAYLOAD","ECCENTRICITY":"0.00012080","SITE":"AFETR","DECAY_DATE":null,"EPOCH":"2021-12-22T20:00:01.000224","MEAN_ELEMENT_THEORY":"SGP4","INCLINATION":"53.2177","CENTER_NAME":"EARTH","LAUNCH_DATE":"2021-11-13","TIME_SYSTEM":"UTC"},{"BSTAR":"-0.00882750000000","GP_ID":"192225485","TLE_LINE1":"1 49430U 21104Y   21356.83334491 -.00655881  00000-0 -88275-2 0  9997","MEAN_MOTION_DDOT":"0.0000000000000","REF_FRAME":"TEME","RCS_SIZE":"LARGE","ARG_OF_PERICENTER":"73.1423","EPHEMERIS_TYPE":"0","PERIAPSIS":"388.526","ELEMENT_SET_NO":"999","OBJECT_ID":"2021-104Y","COUNTRY_CODE":"US","CLASSIFICATION_TYPE":"U","MEAN_ANOMALY":"206.7174","NORAD_CAT_ID":"49430","PERIOD":"92.342","MEAN_MOTION":"15.59416080","FILE":"3247720","RA_OF_ASC_NODE":"299.0782","OBJECT_NAME":"STARLINK-3138","SEMIMAJOR_AXIS":"6767.483","OBJECT_TYPE":"PAYLOAD","ECCENTRICITY":"0.00012140","REV_AT_EPOCH":"745","MEAN_MOTION_DOT":"-0.00655881","TLE_LINE2":"2 49430  53.2176 299.0782 0001214  73.1423 206.7174 15.59416080  7453","APOAPSIS":"390.170","MEAN_ELEMENT_THEORY":"SGP4","DECAY_DATE":null,"EPOCH":"2021-12-22T20:00:01.000224","SITE":"AFETR","LAUNCH_DATE":"2021-11-13","TIME_SYSTEM":"UTC","CENTER_NAME":"EARTH","INCLINATION":"53.2176"},{"TLE_LINE1":"1 49431U 21104Z   21356.83334491 -.00656267  00000-0 -91410-2 0  9992","MEAN_MOTION_DDOT":"0.0000000000000","BSTAR":"-0.00914100000000","GP_ID":"192225745","REF_FRAME":"TEME","EPHEMERIS_TYPE":"0","ARG_OF_PERICENTER":"58.5039","PERIAPSIS":"391.013","RCS_SIZE":"LARGE","OBJECT_ID":"2021-104Z","ELEMENT_SET_NO":"999","CLASSIFICATION_TYPE":"U","COUNTRY_CODE":"US","MEAN_ANOMALY":"192.1472","MEAN_MOTION":"15.58516910","PERIOD":"92.396","NORAD_CAT_ID":"49431","RA_OF_ASC_NODE":"299.0728","FILE":"3247705","OBJECT_NAME":"STARLINK-3153","SEMIMAJOR_AXIS":"6770.086","REV_AT_EPOCH":"746","ECCENTRICITY":"0.00013850","OBJECT_TYPE":"PAYLOAD","TLE_LINE2":"2 49431  53.2175 299.0728 0001385  58.5039 192.1472 15.58516910  7464","APOAPSIS":"392.888","MEAN_MOTION_DOT":"-0.00656267","MEAN_ELEMENT_THEORY":"SGP4","SITE":"AFETR","DECAY_DATE":null,"EPOCH":"2021-12-22T20:00:01.000224","CENTER_NAME":"EARTH","LAUNCH_DATE":"2021-11-13","TIME_SYSTEM":"UTC","INCLINATION":"53.2175"},{"MEAN_ELEMENT_THEORY":"SGP4","SITE":"AFETR","DECAY_DATE":null,"EPOCH":"2021-12-22T20:00:01.000224","CENTER_NAME":"EARTH","LAUNCH_DATE":"2021-11-13","TIME_SYSTEM":"UTC","INCLINATION":"53.2186","OBJECT_NAME":"STARLINK-3158","SEMIMAJOR_AXIS":"6727.896","REV_AT_EPOCH":"747","OBJECT_TYPE":"PAYLOAD","ECCENTRICITY":"0.00017850","TLE_LINE2":"2 49432  53.2186 298.4549 0001785  33.5614 173.7320 15.73199651  7471","APOAPSIS":"350.962","MEAN_MOTION_DOT":"0.00068633","CLASSIFICATION_TYPE":"U","COUNTRY_CODE":"US","MEAN_ANOMALY":"173.7320","MEAN_MOTION":"15.73199651","NORAD_CAT_ID":"49432","PERIOD":"91.533","RA_OF_ASC_NODE":"298.4549","FILE":"3247721","TLE_LINE1":"1 49432U 21104AA  21356.83334491  .00068633  00000-0  48944-3 0  9990","MEAN_MOTION_DDOT":"0.0000000000000","BSTAR":"0.00048944000000","GP_ID":"192225521","REF_FRAME":"TEME","ARG_OF_PERICENTER":"33.5614","EPHEMERIS_TYPE":"0","PERIAPSIS":"348.560","RCS_SIZE":"LARGE","OBJECT_ID":"2021-104AA","ELEMENT_SET_NO":"999"},{"MEAN_MOTION":"15.73231909","NORAD_CAT_ID":"49433","PERIOD":"91.531","RA_OF_ASC_NODE":"298.5305","FILE":"3247711","CLASSIFICATION_TYPE":"U","COUNTRY_CODE":"US","MEAN_ANOMALY":"145.9326","PERIAPSIS":"348.098","EPHEMERIS_TYPE":"0","ARG_OF_PERICENTER":"24.6505","RCS_SIZE":"LARGE","ELEMENT_SET_NO":"999","OBJECT_ID":"2021-104AB","MEAN_MOTION_DDOT":"0.0000000000000","TLE_LINE1":"1 49433U 21104AB  21356.83334491 -.00037079  00000-0 -26053-3 0  9990","GP_ID":"192225351","BSTAR":"-0.00026053000000","REF_FRAME":"TEME","CENTER_NAME":"EARTH","LAUNCH_DATE":"2021-11-13","TIME_SYSTEM":"UTC","INCLINATION":"53.2173","MEAN_ELEMENT_THEORY":"SGP4","SITE":"AFETR","EPOCH":"2021-12-22T20:00:01.000224","DECAY_DATE":null,"REV_AT_EPOCH":"747","ECCENTRICITY":"0.00023360","OBJECT_TYPE":"PAYLOAD","APOAPSIS":"351.241","TLE_LINE2":"2 49433  53.2173 298.5305 0002336  24.6505 145.9326 15.73231909  7472","MEAN_MOTION_DOT":"-0.00037079","OBJECT_NAME":"STARLINK-3079","SEMIMAJOR_AXIS":"6727.804"}];
